STARLINK-4004           
1 52656U 22053A   22272.52090478 -.00006738  00000+0 -40590-3 0  9992
2 52656  53.2181  37.7644 0001575  59.1514 300.9633 15.08819184 21327
STARLINK-4084           
1 52657U 22053B   22272.46201948 -.00007272  00000+0 -43956-3 0  9995
2 52657  53.2176  38.0289 0001597  60.9053 299.2099 15.08817359 21613
STARLINK-4082           
1 52658U 22053C   22272.45833775  .00001401  00000+0  10609-3 0  9999
2 52658  53.2182  38.0444 0001804  46.6555 313.4587 15.08834919 21435
STARLINK-3960           
1 52659U 22053D   22272.52554882 -.00001903  00000+0 -10154-3 0  9991
2 52659  53.2154  37.7447 0002427  27.0470 333.0649 15.08823915 21447
STARLINK-4081           
1 52660U 22053E   22272.51721951 -.00005175  00000+0 -30748-3 0  9991
2 52660  53.2165  37.7766 0001582  50.1128 310.0003 15.08818302 21323
STARLINK-4042           
1 52661U 22053F   22272.51354687 -.00002680  00000+0 -15039-3 0  9994
2 52661  53.2175  37.7965 0001643  67.0491 293.0674 15.08823970 21257
STARLINK-4044           
1 52662U 22053G   22272.43993639 -.00001779  00000+0 -93724-4 0  9998
2 52662  53.2197  38.1490 0001733  53.9195 306.1958 15.08827290 21244
STARLINK-4037           
1 52663U 22053H   22272.50249731  .00000845  00000+0  71171-4 0  9997
2 52663  53.2180  37.8608 0002183  47.6635 312.4542 15.08847240 21250
STARLINK-4070           
1 52664U 22053J   22272.50986112 -.00002343  00000+0 -12918-3 0  9999
2 52664  53.2190  37.8232 0001643  51.6700 308.4440 15.08828483 21253
STARLINK-4064           
1 52665U 22053K   22272.49146675 -.00001035  00000+0 -46940-4 0  9990
2 52665  53.2218  37.9143 0001947  32.7883 327.3230 15.08829467 21256
STARLINK-4079           
1 52666U 22053L   22272.49881035 -.00007474  00000+0 -45216-3 0  9994
2 52666  53.2180  37.8785 0001706  62.1701 297.9464 15.08824393 21259
STARLINK-4076           
1 52667U 22053M   22272.48778862 -.00000281  00000+0  43080-6 0  9995
2 52667  53.2206  37.9306 0001995  47.0821 313.0339 15.08836618 21258
STARLINK-4067           
1 52668U 22053N   22272.49515362 -.00001926  00000+0 -10298-3 0  9991
2 52668  53.2153  37.8942 0001927  40.7431 319.3705 15.08816733 21259
STARLINK-3972           
1 52669U 22053P   22272.47673430  .00007295  00000+0  47582-3 0  9990
2 52669  53.2176  37.9780 0001813  54.5401 305.5760 15.08849203 21245
STARLINK-4075           
1 52670U 22053Q   22271.76378669 -.00001402  00000+0 -70035-4 0  9995
2 52670  53.2205  41.1779 0001768  53.5587 306.5568 15.08823538 21147
STARLINK-4071           
1 52671U 22053R   22271.87690394  .00004571  00000+0  30529-3 0  9991
2 52671  53.2203  40.6660 0001650  48.8113 311.3021 15.08819730 20721
STARLINK-4073           
1 52672U 22053S   22272.48410065  .00000032  00000+0  20134-4 0  9995
2 52672  53.2198  37.9436 0001793  51.5971 308.5183 15.08840536 20811
STARLINK-3976           
1 52673U 22053T   22271.80328283  .00001359  00000+0  10346-3 0  9997
2 52673  53.2214  40.9856 0001761  46.9535 313.1605 15.08851262 20718
STARLINK-3936           
1 52674U 22053U   22272.48043484 -.00001135  00000+0 -53242-4 0  9997
2 52674  53.2191  37.9616 0001851  34.2686 325.8425 15.08820699 20811
STARLINK-3934           
1 52675U 22053V   22272.46293970 -.00000968  00000+0 -42696-4 0  9997
2 52675  53.2154  28.0273 0001925  29.0982 331.0118 15.08848158 20946
STARLINK-4006           
1 52676U 22053W   22271.74073535  .00002171  00000+0  15444-3 0  9997
2 52676  53.2206  41.2721 0001668  45.9546 314.1583 15.08838952 20700
STARLINK-4028           
1 52677U 22053X   22272.45558345 -.00002752  00000+0 -15492-3 0  9994
2 52677  53.2178  28.0591 0001654  52.6512 307.4630 15.08831648 20949
STARLINK-4074           
1 52678U 22053Y   22272.46388969  .00000209  00000+0  31216-4 0  9995
2 52678  53.2175  28.0197 0001766  43.0132 317.0998 15.08841218 20943
STARLINK-4031           
1 52679U 22053Z   22272.51077297  .00001798  00000+0  13103-3 0  9999
2 52679  53.2180  27.8117 0001738  61.7777 298.3391 15.08846669 20954
STARLINK-3774           
1 52680U 22053AA  22272.52550288 -.00002038  00000+0 -10998-3 0  9997
2 52680  53.2181  27.7461 0002386  40.2368 319.8801 15.08830897 20957
STARLINK-4068           
1 52681U 22053AB  22272.50710286  .00001768  00000+0  12913-3 0  9998
2 52681  53.2175  27.8218 0002000  43.8358 316.2793 15.08843635 20958
STARLINK-4017           
1 52682U 22053AC  22272.51814780 -.00002277  00000+0 -12505-3 0  9999
2 52682  53.2174  27.7733 0001860  49.6408 310.4746 15.08824796 20953
STARLINK-4039           
1 52683U 22053AD  22272.49975511 -.00003525  00000+0 -20366-3 0  9998
2 52683  53.2172  27.8563 0001622  34.1973 325.9123 15.08813975 20953
STARLINK-4014           
1 52684U 22053AE  22272.51447727 -.00003461  00000+0 -19960-3 0  9992
2 52684  53.2181  27.7939 0001779  51.6274 308.4877 15.08816550 20955
STARLINK-4029           
1 52685U 22053AF  22272.49237103 -.00002787  00000+0 -15710-3 0  9994
2 52685  53.2167  27.8827 0001557  49.8829 310.2299 15.08837155 20959
STARLINK-4005           
1 52686U 22053AG  22272.50341505  .00005302  00000+0  35083-3 0  9998
2 52686  53.2185  27.8430 0001847  52.9723 307.1438 15.08854884 20958
STARLINK-3981           
1 52687U 22053AH  22272.48869815 -.00005871  00000+0 -35114-3 0  9993
2 52687  53.2218  27.9053 0001863  49.8825 310.2331 15.08830368 20952
STARLINK-4032           
1 52688U 22053AJ  22272.49702849 -.00001437  00000+0 -72220-4 0  9992
2 52688  53.2186  27.8620 0001848  53.6683 306.4480 15.08815529 20958
STARLINK-4078           
1 52689U 22053AK  22272.47766773 -.00002584  00000+0 -14433-3 0  9992
2 52689  53.2208  27.9624 0001953  32.4847 327.6265 15.08831354 20953
STARLINK-4035           
1 52690U 22053AL  22272.49607101 -.00002187  00000+0 -11938-3 0  9991
2 52690  53.2209  27.8745 0001411  70.5081 289.6064 15.08833825 20950
STARLINK-3945           
1 52691U 22053AM  22271.48037410  .00000681  00000+0  60872-4 0  9997
2 52691  53.2202  32.4313 0001711  51.4556 308.6589 15.08843609 21209
STARLINK-3993           
1 52692U 22053AN  22272.48501528 -.00003201  00000+0 -18322-3 0  9990
2 52692  53.2184  27.9181 0001467  72.3239 287.7913 15.08823391 20954
STARLINK-3946           
1 52693U 22053AP  22272.46661583  .00001870  00000+0  13556-3 0  9999
2 52693  53.2224  28.0063 0001512  48.5095 311.6027 15.08843364 20952
STARLINK-4072           
1 52694U 22053AQ  22272.48133323 -.00000176  00000+0  70695-5 0  9996
2 52694  53.2187  27.9360 0001600  48.2672 311.8457 15.08841695 20959
STARLINK-4041           
1 52695U 22053AR  22272.47263494 -.00003004  00000+0 -17075-3 0  9994
2 52695  53.2198  32.9814 0001698  52.5532 307.5615 15.08828395 20884
STARLINK-4025           
1 52696U 22053AS  22271.47669343  .00000510  00000+0  50175-4 0  9993
2 52696  53.2201  32.4481 0002001  45.9558 314.1598 15.08841702 21206
STARLINK-4018           
1 52697U 22053AT  22272.48000120 -.00002419  00000+0 -13397-3 0  9994
2 52697  53.2204  32.9460 0001902  43.9867 316.1277 15.08826672 20880
STARLINK-4030           
1 52698U 22053AU  22272.49103244 -.00002092  00000+0 -11338-3 0  9997
2 52698  53.2191  32.8955 0001491  69.5363 290.5790 15.08836057 20885
STARLINK-3987           
1 52699U 22053AV  22272.46620378 -.00002994  00000+0 -17015-3 0  9996
2 52699  53.2153  23.0128 0001849  40.8099 319.3031 15.08823464 21015
STARLINK-4034           
1 52700U 22053AW  22272.48368981 -.00003756  00000+0 -21816-3 0  9991
2 52700  53.2190  32.9266 0001763  45.2183 314.8953 15.08811017 20887
STARLINK-4003           
1 52701U 22053AX  22272.51536510 -.00001403  00000+0 -70047-4 0  9999
2 52701  53.2197  17.7958 0001647  52.4588 307.6554 15.08849584 21095
STARLINK-4033           
1 52702U 22053AY  22272.47632487 -.00002885  00000+0 -16327-3 0  9990
2 52702  53.2212  32.9670 0001677  50.1758 309.9382 15.08827553 20883
STARLINK-4020           
1 52703U 22053AZ  22272.50434113  .00000369  00000+0  41271-4 0  9991
2 52703  53.2188  17.8461 0001995  40.2046 319.9093 15.08832431 21094
STARLINK-3999           
1 52704U 22053BA  22272.51907177 -.00003442  00000+0 -19833-3 0  9993
2 52704  53.2205  17.7879 0002657  25.3802 334.7320 15.08824595 21097
STARLINK-3844           
1 52705U 22053BB  22272.44176872 -.00002170  00000+0 -11826-3 0  9997
2 52705  53.2196  18.1309 0002038  48.0271 312.0894 15.08841626 21083
STARLINK-3970           
1 52706U 22053BC  22272.11426438 -.00000759  00000+0 -29568-4 0  9992
2 52706  53.2178  19.5933 0001554  79.3783 280.7384 15.08839087 21037
STARLINK-4007           
1 52707U 22053BD  22272.56785977 -.00002620  00000+0 -14662-3 0  9995
2 52707  53.2192  17.5626 0001996  44.4201 315.6951 15.08831758 21102
STARLINK-3962           
1 52708U 22053BE  22272.46849950 -.00001667  00000+0 -86642-4 0  9995
2 52708  53.2205  17.9935 0002341  34.6360 325.4785 15.08846108 21094
COSMOS 2556             
1 52713U 22054A   22272.56016141  .00002844  00000+0  13794-3 0  9994
2 52713  97.6867 188.0391 0005889 335.9063 197.0973 15.19349656 20144
2022-056A               
1 52716U 22056A   22272.45250537  .00000148  00000+0  82508-4 0  9991
2 52716  85.9973 261.9941 0017731 256.3510 103.5701 14.03526710 18529
2022-056B               
1 52717U 22056B   22271.74819675  .00000016  00000+0  19429-5 0  9994
2 52717  86.0002 265.8226 0045776 132.5566 227.9438 13.29525294 17935
2022-056C               
1 52718U 22056C   22272.45660321  .00000164  00000+0  93229-4 0  9999
2 52718  85.9976 261.9960 0013459 248.7796 111.1956 14.03519104 18525
LEMUR-2-TENNYSONLILY    
1 52732U 22057A   22271.86795024  .00012453  00000+0  70225-3 0  9993
2 52732  97.5304  25.0675 0009184 184.5492 175.5657 15.13279965 19069
LEMUR-2-VANDENDRIES     
1 52733U 22057B   22272.17254129  .00006363  00000+0  35702-3 0  9999
2 52733  97.5197  25.2551 0007951 174.2318 185.9007 15.13675964 19117
